{"fetched_at":"2026-07-21T17:53:05.430Z","source":"https://celestrak.org/NORAD/elements/gp.php?GROUP=oneweb&FORMAT=JSON","constellation":"oneweb","records":[{"OBJECT_NAME":"ONEWEB-0349","OBJECT_ID":"2021-090C","EPOCH":"2026-07-21T04:00:29.808288","CLASSIFICATION_TYPE":"U","MEAN_MOTION":13.20771062,"ECCENTRICITY":0.00020392,"INCLINATION":87.918,"RA_OF_ASC_NODE":267.6702,"ARG_OF_PERICENTER":97.486,"MEAN_ANOMALY":262.6505,"EPHEMERIS_TYPE":0,"NORAD_CAT_ID":49281,"ELEMENT_SET_NO":999,"REV_AT_EPOCH":23431,"BSTAR":-0.000049509826,"MEAN_MOTION_DOT":-7e-8,"MEAN_MOTION_DDOT":0},{"OBJECT_NAME":"ONEWEB-0353","OBJECT_ID":"2021-090D","EPOCH":"2026-07-21T03:49:18.475104","CLASSIFICATION_TYPE":"U","MEAN_MOTION":13.14503075,"ECCENTRICITY":0.0002043,"INCLINATION":87.8965,"RA_OF_ASC_NODE":282.9364,"ARG_OF_PERICENTER":106.8123,"MEAN_ANOMALY":253.3231,"EPHEMERIS_TYPE":0,"NORAD_CAT_ID":49282,"ELEMENT_SET_NO":999,"REV_AT_EPOCH":23204,"BSTAR":0.000094225856,"MEAN_MOTION_DOT":4.8e-7,"MEAN_MOTION_DDOT":0},{"OBJECT_NAME":"ONEWEB-0356","OBJECT_ID":"2021-090E","EPOCH":"2026-07-21T03:58:04.888704","CLASSIFICATION_TYPE":"U","MEAN_MOTION":13.20771155,"ECCENTRICITY":0.00012323,"INCLINATION":87.9178,"RA_OF_ASC_NODE":267.664,"ARG_OF_PERICENTER":102.4133,"MEAN_ANOMALY":257.7138,"EPHEMERIS_TYPE":0,"NORAD_CAT_ID":49283,"ELEMENT_SET_NO":999,"REV_AT_EPOCH":23431,"BSTAR":-0.00012637898,"MEAN_MOTION_DOT":-3.8e-7,"MEAN_MOTION_DDOT":0},{"OBJECT_NAME":"ONEWEB-0358","OBJECT_ID":"2021-090F","EPOCH":"2026-07-21T03:01:05.708928","CLASSIFICATION_TYPE":"U","MEAN_MOTION":13.20770094,"ECCENTRICITY":0.00019405,"INCLINATION":87.9181,"RA_OF_ASC_NODE":267.6796,"ARG_OF_PERICENTER":95.4055,"MEAN_ANOMALY":264.7299,"EPHEMERIS_TYPE":0,"NORAD_CAT_ID":49284,"ELEMENT_SET_NO":999,"REV_AT_EPOCH":23503,"BSTAR":0.00010225437,"MEAN_MOTION_DOT":5.5e-7,"MEAN_MOTION_DDOT":0},{"OBJECT_NAME":"ONEWEB-0359","OBJECT_ID":"2021-090G","EPOCH":"2026-07-21T02:47:46.375872","CLASSIFICATION_TYPE":"U","MEAN_MOTION":13.20770365,"ECCENTRICITY":0.00020359,"INCLINATION":87.9175,"RA_OF_ASC_NODE":267.6728,"ARG_OF_PERICENTER":89.4079,"MEAN_ANOMALY":270.7287,"EPHEMERIS_TYPE":0,"NORAD_CAT_ID":49285,"ELEMENT_SET_NO":999,"REV_AT_EPOCH":23501,"BSTAR":0.00010567202,"MEAN_MOTION_DOT":5.6e-7,"MEAN_MOTION_DDOT":0},{"OBJECT_NAME":"ONEWEB-0360","OBJECT_ID":"2021-090H","EPOCH":"2026-07-20T17:27:47.937024","CLASSIFICATION_TYPE":"U","MEAN_MOTION":13.207719,"ECCENTRICITY":0.000219,"INCLINATION":87.9175,"RA_OF_ASC_NODE":267.7565,"ARG_OF_PERICENTER":98.6501,"MEAN_ANOMALY":261.4881,"EPHEMERIS_TYPE":0,"NORAD_CAT_ID":49286,"ELEMENT_SET_NO":999,"REV_AT_EPOCH":23427,"BSTAR":-0.000033742702,"MEAN_MOTION_DOT":-1e-8,"MEAN_MOTION_DDOT":0},{"OBJECT_NAME":"ONEWEB-0361","OBJECT_ID":"2021-090J","EPOCH":"2026-07-21T03:55:38.534016","CLASSIFICATION_TYPE":"U","MEAN_MOTION":13.20770836,"ECCENTRICITY":0.00019703,"INCLINATION":87.9176,"RA_OF_ASC_NODE":267.6692,"ARG_OF_PERICENTER":95.8073,"MEAN_ANOMALY":264.3285,"EPHEMERIS_TYPE":0,"NORAD_CAT_ID":49287,"ELEMENT_SET_NO":999,"REV_AT_EPOCH":23478,"BSTAR":-0.00029876031,"MEAN_MOTION_DOT":-0.00000108,"MEAN_MOTION_DDOT":0},{"OBJECT_NAME":"ONEWEB-0362","OBJECT_ID":"2021-090K","EPOCH":"2026-07-21T05:15:17.381088","CLASSIFICATION_TYPE":"U","MEAN_MOTION":13.19726974,"ECCENTRICITY":0.00022611,"INCLINATION":87.9181,"RA_OF_ASC_NODE":298.202,"ARG_OF_PERICENTER":99.616,"MEAN_ANOMALY":260.5229,"EPHEMERIS_TYPE":0,"NORAD_CAT_ID":49288,"ELEMENT_SET_NO":999,"REV_AT_EPOCH":23140,"BSTAR":-0.0010038774,"MEAN_MOTION_DOT":-0.00000389,"MEAN_MOTION_DDOT":0},{"OBJECT_NAME":"ONEWEB-0363","OBJECT_ID":"2021-090L","EPOCH":"2026-07-21T02:28:22.776960","CLASSIFICATION_TYPE":"U","MEAN_MOTION":13.20772409,"ECCENTRICITY":0.00017016,"INCLINATION":87.9181,"RA_OF_ASC_NODE":267.6814,"ARG_OF_PERICENTER":97.294,"MEAN_ANOMALY":262.8387,"EPHEMERIS_TYPE":0,"NORAD_CAT_ID":49289,"ELEMENT_SET_NO":999,"REV_AT_EPOCH":23478,"BSTAR":0.00012358404,"MEAN_MOTION_DOT":6.3e-7,"MEAN_MOTION_DDOT":0},{"OBJECT_NAME":"ONEWEB-0364","OBJECT_ID":"2021-090M","EPOCH":"2026-07-21T03:24:08.386272","CLASSIFICATION_TYPE":"U","MEAN_MOTION":13.2077108,"ECCENTRICITY":0.00021144,"INCLINATION":87.9176,"RA_OF_ASC_NODE":267.681,"ARG_OF_PERICENTER":98.3126,"MEAN_ANOMALY":261.8247,"EPHEMERIS_TYPE":0,"NORAD_CAT_ID":49290,"ELEMENT_SET_NO":999,"REV_AT_EPOCH":23592,"BSTAR":0.000204123,"MEAN_MOTION_DOT":9.6e-7,"MEAN_MOTION_DDOT":0},{"OBJECT_NAME":"ONEWEB-0365","OBJECT_ID":"2021-090N","EPOCH":"2026-07-21T05:28:57.381888","CLASSIFICATION_TYPE":"U","MEAN_MOTION":13.19726545,"ECCENTRICITY":0.00020974,"INCLINATION":87.9192,"RA_OF_ASC_NODE":298.1907,"ARG_OF_PERICENTER":100.9371,"MEAN_ANOMALY":259.1998,"EPHEMERIS_TYPE":0,"NORAD_CAT_ID":49291,"ELEMENT_SET_NO":999,"REV_AT_EPOCH":23091,"BSTAR":0.000092525219,"MEAN_MOTION_DOT":5e-7,"MEAN_MOTION_DDOT":0},{"OBJECT_NAME":"ONEWEB-0366","OBJECT_ID":"2021-090P","EPOCH":"2026-07-21T03:44:45.107232","CLASSIFICATION_TYPE":"U","MEAN_MOTION":13.1450246,"ECCENTRICITY":0.00020068,"INCLINATION":87.8964,"RA_OF_ASC_NODE":282.9388,"ARG_OF_PERICENTER":98.2343,"MEAN_ANOMALY":261.9015,"EPHEMERIS_TYPE":0,"NORAD_CAT_ID":49292,"ELEMENT_SET_NO":999,"REV_AT_EPOCH":23202,"BSTAR":0.00032066475,"MEAN_MOTION_DOT":0.00000132,"MEAN_MOTION_DDOT":0},{"OBJECT_NAME":"ONEWEB-0367","OBJECT_ID":"2021-090Q","EPOCH":"2026-07-21T04:16:14.481696","CLASSIFICATION_TYPE":"U","MEAN_MOTION":13.20773668,"ECCENTRICITY":0.00022073,"INCLINATION":87.9179,"RA_OF_ASC_NODE":267.6678,"ARG_OF_PERICENTER":100.0943,"MEAN_ANOMALY":260.044,"EPHEMERIS_TYPE":0,"NORAD_CAT_ID":49293,"ELEMENT_SET_NO":999,"REV_AT_EPOCH":23431,"BSTAR":0.000002963027,"MEAN_MOTION_DOT":1.4e-7,"MEAN_MOTION_DDOT":0},{"OBJECT_NAME":"ONEWEB-0368","OBJECT_ID":"2021-090R","EPOCH":"2026-07-21T03:38:41.860032","CLASSIFICATION_TYPE":"U","MEAN_MOTION":13.20771796,"ECCENTRICITY":0.00017863,"INCLINATION":87.9168,"RA_OF_ASC_NODE":267.6794,"ARG_OF_PERICENTER":118.0761,"MEAN_ANOMALY":242.0553,"EPHEMERIS_TYPE":0,"NORAD_CAT_ID":49294,"ELEMENT_SET_NO":999,"REV_AT_EPOCH":23546,"BSTAR":0.000044813239,"MEAN_MOTION_DOT":3.1e-7,"MEAN_MOTION_DDOT":0},{"OBJECT_NAME":"ONEWEB-0369","OBJECT_ID":"2021-090S","EPOCH":"2026-07-21T05:22:07.924512","CLASSIFICATION_TYPE":"U","MEAN_MOTION":13.19726724,"ECCENTRICITY":0.00020105,"INCLINATION":87.9182,"RA_OF_ASC_NODE":298.1966,"ARG_OF_PERICENTER":102.8287,"MEAN_ANOMALY":257.307,"EPHEMERIS_TYPE":0,"NORAD_CAT_ID":49295,"ELEMENT_SET_NO":999,"REV_AT_EPOCH":23090,"BSTAR":0.00022429494,"MEAN_MOTION_DOT":0.00000103,"MEAN_MOTION_DDOT":0},{"OBJECT_NAME":"ONEWEB-0370","OBJECT_ID":"2021-090T","EPOCH":"2026-07-21T04:29:35.545344","CLASSIFICATION_TYPE":"U","MEAN_MOTION":13.20772336,"ECCENTRICITY":0.00022535,"INCLINATION":87.9178,"RA_OF_ASC_NODE":267.6649,"ARG_OF_PERICENTER":91.9652,"MEAN_ANOMALY":268.174,"EPHEMERIS_TYPE":0,"NORAD_CAT_ID":49296,"ELEMENT_SET_NO":999,"REV_AT_EPOCH":23435,"BSTAR":-9.17963e-7,"MEAN_MOTION_DOT":1.3e-7,"MEAN_MOTION_DDOT":0}]}
