ONEWEB-0349             
1 49281U 21090C   26202.16701167 -.00000007  00000+0 -49510-4 0  9998
2 49281  87.9180 267.6702 0002039  97.4860 262.6505 13.20771062234315
ONEWEB-0353             
1 49282U 21090D   26202.15924161  .00000048  00000+0  94226-4 0  9996
2 49282  87.8965 282.9364 0002043 106.8123 253.3231 13.14503075232043
ONEWEB-0356             
1 49283U 21090E   26202.16533436 -.00000038  00000+0 -12638-3 0  9996
2 49283  87.9178 267.6640 0001232 102.4133 257.7138 13.20771155234319
ONEWEB-0358             
1 49284U 21090F   26202.12576052  .00000055  00000+0  10225-3 0  9991
2 49284  87.9181 267.6796 0001940  95.4055 264.7299 13.20770094235033
ONEWEB-0359             
1 49285U 21090G   26202.11650898  .00000056  00000+0  10567-3 0  9992
2 49285  87.9175 267.6728 0002035  89.4079 270.7287 13.20770365235010
ONEWEB-0360             
1 49286U 21090H   26201.72763816 -.00000001  00000+0 -33743-4 0  9998
2 49286  87.9175 267.7565 0002190  98.6501 261.4881 13.20771900234275
ONEWEB-0361             
1 49287U 21090J   26202.16364044 -.00000108  00000+0 -29876-3 0  9997
2 49287  87.9176 267.6692 0001970  95.8073 264.3285 13.20770836234788
ONEWEB-0362             
1 49288U 21090K   26202.21895117 -.00000389  00000+0 -10039-2 0  9995
2 49288  87.9181 298.2020 0002261  99.6160 260.5229 13.19726974231407
ONEWEB-0363             
1 49289U 21090L   26202.10304140  .00000063  00000+0  12358-3 0  9999
2 49289  87.9181 267.6814 0001701  97.2940 262.8387 13.20772409234787
ONEWEB-0364             
1 49290U 21090M   26202.14176373  .00000096  00000+0  20412-3 0  9996
2 49290  87.9176 267.6810 0002114  98.3126 261.8247 13.20771080235921
ONEWEB-0365             
1 49291U 21090N   26202.22844192  .00000050  00000+0  92525-4 0  9992
2 49291  87.9192 298.1907 0002097 100.9371 259.1998 13.19726545230919
ONEWEB-0366             
1 49292U 21090P   26202.15607763  .00000132  00000+0  32066-3 0  9990
2 49292  87.8964 282.9388 0002006  98.2343 261.9015 13.14502460232026
ONEWEB-0367             
1 49293U 21090Q   26202.17794539  .00000014  00000+0  29630-5 0  9995
2 49293  87.9179 267.6678 0002207 100.0943 260.0440 13.20773668234312
ONEWEB-0368             
1 49294U 21090R   26202.15187338  .00000031  00000+0  44813-4 0  9995
2 49294  87.9168 267.6794 0001786 118.0761 242.0553 13.20771796235460
ONEWEB-0369             
1 49295U 21090S   26202.22370283  .00000103  00000+0  22429-3 0  9995
2 49295  87.9182 298.1966 0002010 102.8287 257.3070 13.19726724230908
ONEWEB-0370             
1 49296U 21090T   26202.18721696  .00000013  00000+0 -91796-6 0  9996
2 49296  87.9178 267.6649 0002253  91.9652 268.1740 13.20772336234355
